{
  "type": "FeatureCollection",
  "name": "San Van authored district masks (Leaflet projection)",
  "metadata": {
    "geometry_source": "game-file-authored",
    "source_asset": "levels/game/BAM_LevelRoot/CityMapAsset/DistrictMaskPrefab_ecsPrefab",
    "source_file": "E:\\Skate Datamine\\_datamine\\output\\extracted\\maps\\san_van\\boundaries_raw\\districtmaskprefab_ecsprefab.ebx",
    "source_sha256": "9db476118db25584e3e190f789929202701b213a750af5bcd9737346b40fe7f6",
    "record_stride": 48,
    "coordinate_plane": "Frostbite world X/Z; Y retained in authored_points",
    "crs": "Leaflet CRS.Simple",
    "projection": {
      "status": "extent-aligned-to-extracted-raster",
      "note": "Vertices are exact game data; only world-to-raster presentation is calibrated.",
      "downtown_world_xz_bounds": [
        -335.435302734375, 1026.3658447265625, 934.5402526855469,
        1837.5721435546875
      ],
      "map_alpha_pixel_bounds": [1365, 0, 6352, 4141],
      "pixel_formula": {
        "x": "1365 + (worldX - -335.435302734375) * 3.9268472363241913",
        "y": "0 + (worldZ - 1026.3658447265625) * 5.104743400023054"
      }
    }
  },
  "features": [
    {
      "type": "Feature",
      "id": "gullcrest-village",
      "properties": {
        "id": "gullcrest-village",
        "name": "Gullcrest Village",
        "internal_area": "historic",
        "color": "#E6B735",
        "stroke": "#E6B735",
        "fill": "#E6B735",
        "fillOpacity": 0.08,
        "geometry_status": "authoritative-authored-vertices",
        "vertex_count": 19,
        "source_origin_offset": "0xECE0",
        "source_points_offset": "0xED10",
        "parent_origin_xyz": [259.8328857421875, 160.5, 1012.368408203125],
        "authored_points": [
          {
            "index": 0,
            "record_offset": "0xED10",
            "local": [21.1807861328125, 0.0, 209.354248046875],
            "world": [281.013671875, 160.5, 1221.72265625]
          },
          {
            "index": 1,
            "record_offset": "0xED40",
            "local": [26.9654541015625, 0.0, 318.500244140625],
            "world": [286.79833984375, 160.5, 1330.86865234375]
          },
          {
            "index": 2,
            "record_offset": "0xED70",
            "local": [-24.2601318359375, 0.0, 328.062255859375],
            "world": [235.57275390625, 160.5, 1340.4306640625]
          },
          {
            "index": 3,
            "record_offset": "0xEDA0",
            "local": [-63.8753662109375, 0.0, 371.092041015625],
            "world": [195.95751953125, 160.5, 1383.46044921875]
          },
          {
            "index": 4,
            "record_offset": "0xEDD0",
            "local": [-80.73222351074219, 0.0, 468.437744140625],
            "world": [179.1006622314453, 160.5, 1480.80615234375]
          },
          {
            "index": 5,
            "record_offset": "0xEE00",
            "local": [-111.8328857421875, 0.0, 450.631591796875],
            "world": [148.0, 160.5, 1463.0]
          },
          {
            "index": 6,
            "record_offset": "0xEE30",
            "local": [-159.8328857421875, 0.0, 523.631591796875],
            "world": [100.0, 160.5, 1536.0]
          },
          {
            "index": 7,
            "record_offset": "0xEE60",
            "local": [-257.8509521484375, 0.0, 502.631591796875],
            "world": [1.98193359375, 160.5, 1515.0]
          },
          {
            "index": 8,
            "record_offset": "0xEE90",
            "local": [-337.7637939453125, 0.0, 461.250244140625],
            "world": [-77.930908203125, 160.5, 1473.61865234375]
          },
          {
            "index": 9,
            "record_offset": "0xEEC0",
            "local": [-421.8328857421875, 0.0, 373.631591796875],
            "world": [-162.0, 160.5, 1386.0]
          },
          {
            "index": 10,
            "record_offset": "0xEEF0",
            "local": [-489.63580322265625, 0.0, 293.043212890625],
            "world": [-229.80291748046875, 160.5, 1305.41162109375]
          },
          {
            "index": 11,
            "record_offset": "0xEF20",
            "local": [-510.337158203125, 0.0, 262.1962890625],
            "world": [-250.5042724609375, 160.5, 1274.564697265625]
          },
          {
            "index": 12,
            "record_offset": "0xEF50",
            "local": [-458.08001708984375, 0.0, 214.4205322265625],
            "world": [-198.24713134765625, 160.5, 1226.7889404296875]
          },
          {
            "index": 13,
            "record_offset": "0xEF80",
            "local": [-439.61151123046875, 0.0, 214.1651611328125],
            "world": [-179.77862548828125, 160.5, 1226.5335693359375]
          },
          {
            "index": 14,
            "record_offset": "0xEFB0",
            "local": [-426.26885986328125, 0.0, 220.892333984375],
            "world": [-166.43597412109375, 160.5, 1233.2607421875]
          },
          {
            "index": 15,
            "record_offset": "0xEFE0",
            "local": [-385.7064208984375, 0.0, 180.0499267578125],
            "world": [-125.87353515625, 160.5, 1192.4183349609375]
          },
          {
            "index": 16,
            "record_offset": "0xF010",
            "local": [-307.6234130859375, 0.0, 110.939697265625],
            "world": [-47.79052734375, 160.5, 1123.30810546875]
          },
          {
            "index": 17,
            "record_offset": "0xF040",
            "local": [-228.51683044433594, 0.0, 54.470703125],
            "world": [31.316055297851562, 160.5, 1066.839111328125]
          },
          {
            "index": 18,
            "record_offset": "0xF070",
            "local": [-131.98367309570312, 0.0, 20.1009521484375],
            "world": [127.84921264648438, 160.5, 1032.4693603515625]
          }
        ]
      },
      "geometry": {
        "type": "Polygon",
        "coordinates": [
          [
            [118.3031547587408, -31.163949821056725],
            [119.01301436580765, -48.575271796010234],
            [112.72691903556517, -50.10063480264249],
            [107.8655761098838, -56.964885170791774],
            [105.79700412548226, -72.49378628166514],
            [101.98051820262592, -69.65329132364754],
            [96.09024734813963, -81.29848720495013],
            [84.06206068635137, -77.948499348685],
            [74.25563812519917, -71.34721305705058],
            [63.939185600735314, -57.37000251734207],
            [55.61882000314481, -44.51428391295967],
            [53.078474422106694, -39.59348294975233],
            [59.491155989572064, -31.97213984383488],
            [61.757499776850935, -31.931402221791853],
            [63.39482957830335, -33.004542572255225],
            [68.37240774541789, -26.4892297994162],
            [77.95428410268028, -15.464542678343614],
            [87.66176739709353, -6.456426267553114],
            [99.5077349642225, -0.9736525344892605],
            [118.3031547587408, -31.163949821056725]
          ]
        ]
      }
    },
    {
      "type": "Feature",
      "id": "hedgemont",
      "properties": {
        "id": "hedgemont",
        "name": "Hedgemont",
        "internal_area": "entertainment",
        "color": "#D52AAA",
        "stroke": "#D52AAA",
        "fill": "#D52AAA",
        "fillOpacity": 0.08,
        "geometry_status": "authoritative-authored-vertices",
        "vertex_count": 22,
        "source_origin_offset": "0xF0A0",
        "source_points_offset": "0xF0D0",
        "parent_origin_xyz": [
          259.60198974609375, 160.91152954101562, 1012.4447021484375
        ],
        "authored_points": [
          {
            "index": 0,
            "record_offset": "0xF0D0",
            "local": [20.80279541015625, 0.0, 207.9190673828125],
            "world": [280.40478515625, 160.91152954101562, 1220.36376953125]
          },
          {
            "index": 1,
            "record_offset": "0xF100",
            "local": [27.01177978515625, 0.0, 317.2012939453125],
            "world": [286.61376953125, 160.91152954101562, 1329.64599609375]
          },
          {
            "index": 2,
            "record_offset": "0xF130",
            "local": [-23.28265380859375, 0.0, 326.5152587890625],
            "world": [236.3193359375, 160.91152954101562, 1338.9599609375]
          },
          {
            "index": 3,
            "record_offset": "0xF160",
            "local": [-63.02142333984375, 0.0, 368.7379150390625],
            "world": [196.58056640625, 160.91152954101562, 1381.1826171875]
          },
          {
            "index": 4,
            "record_offset": "0xF190",
            "local": [-78.52069091796875, 0.0, 433.5552978515625],
            "world": [181.081298828125, 160.91152954101562, 1446.0]
          },
          {
            "index": 5,
            "record_offset": "0xF1C0",
            "local": [-80.90483093261719, 0.0, 468.0850830078125],
            "world": [178.69715881347656, 160.91152954101562, 1480.52978515625]
          },
          {
            "index": 6,
            "record_offset": "0xF1F0",
            "local": [23.28668212890625, 0.0, 527.0728759765625],
            "world": [282.888671875, 160.91152954101562, 1539.517578125]
          },
          {
            "index": 7,
            "record_offset": "0xF220",
            "local": [189.56045532226562, 0.0, 530.39404296875],
            "world": [449.1624450683594, 160.91152954101562, 1542.8387451171875]
          },
          {
            "index": 8,
            "record_offset": "0xF250",
            "local": [235.92578125, 0.0, 529.2772216796875],
            "world": [495.52777099609375, 160.91152954101562, 1541.721923828125]
          },
          {
            "index": 9,
            "record_offset": "0xF280",
            "local": [346.55804443359375, 0.0, 527.0103759765625],
            "world": [606.1600341796875, 160.91152954101562, 1539.455078125]
          },
          {
            "index": 10,
            "record_offset": "0xF2B0",
            "local": [582.7368774414062, 0.0, 546.6922607421875],
            "world": [842.3388671875, 160.91152954101562, 1559.136962890625]
          },
          {
            "index": 11,
            "record_offset": "0xF2E0",
            "local": [682.7781982421875, 0.0, 555.9539794921875],
            "world": [942.3801879882812, 160.91152954101562, 1568.398681640625]
          },
          {
            "index": 12,
            "record_offset": "0xF310",
            "local": [679.3758544921875, 0.0, 523.45654296875],
            "world": [938.9778442382812, 160.91152954101562, 1535.9012451171875]
          },
          {
            "index": 13,
            "record_offset": "0xF340",
            "local": [676.887939453125, 0.0, 504.5074462890625],
            "world": [936.4899291992188, 160.91152954101562, 1516.9521484375]
          },
          {
            "index": 14,
            "record_offset": "0xF370",
            "local": [603.3394775390625, 0.0, 353.574951171875],
            "world": [862.9414672851562, 160.91152954101562, 1366.0196533203125]
          },
          {
            "index": 15,
            "record_offset": "0xF3A0",
            "local": [453.89031982421875, 0.0, 107.4952392578125],
            "world": [713.4923095703125, 160.91152954101562, 1119.93994140625]
          },
          {
            "index": 16,
            "record_offset": "0xF3D0",
            "local": [413.21746826171875, 0.0, 68.5103759765625],
            "world": [672.8194580078125, 160.91152954101562, 1080.955078125]
          },
          {
            "index": 17,
            "record_offset": "0xF400",
            "local": [281.917236328125, 0.0, 10.4337158203125],
            "world": [541.5192260742188, 160.91152954101562, 1022.87841796875]
          },
          {
            "index": 18,
            "record_offset": "0xF430",
            "local": [228.49798583984375, 0.0, -3.5123291015625],
            "world": [488.0999755859375, 160.91152954101562, 1008.932373046875]
          },
          {
            "index": 19,
            "record_offset": "0xF460",
            "local": [158.04019165039062, 0.0, -6.66766357421875],
            "world": [417.6421813964844, 160.91152954101562, 1005.7770385742188]
          },
          {
            "index": 20,
            "record_offset": "0xF490",
            "local": [101.58865356445312, 0.0, -6.25360107421875],
            "world": [361.1906433105469, 160.91152954101562, 1006.1911010742188]
          },
          {
            "index": 21,
            "record_offset": "0xF4C0",
            "local": [72.97775268554688, 0.0, -4.58026123046875],
            "world": [332.5797424316406, 160.91152954101562, 1007.8644409179688]
          }
        ]
      },
      "geometry": {
        "type": "Polygon",
        "coordinates": [
          [
            [118.22843584846711, -30.94717582077804],
            [118.99036500888427, -48.38022972030135],
            [112.8185350851309, -49.86602348793196],
            [107.94203266923363, -56.60151804492038],
            [106.04005591753958, -66.9413963923853],
            [105.74748861667919, -72.44969929490345],
            [118.53324346399418, -81.85962263362698],
            [138.93735929954227, -82.38942592374397],
            [144.62703279893583, -82.21126698298312],
            [158.2031577030229, -81.84965243167382],
            [187.18560138036668, -84.98937028659064],
            [199.4620696336407, -86.46682958852602],
            [199.04455450389972, -81.2827335069421],
            [198.73925255716995, -78.25991237531605],
            [189.7138283570721, -54.18267305348871],
            [171.37432798383733, -14.92724226371106],
            [166.38320064784898, -8.708250903218497],
            [150.2708271198128, 0.5563255851564737],
            [143.7155384902373, 2.7810437342616745],
            [135.06938241553877, 3.2843928850165875],
            [128.14198971806957, 3.218340297076836],
            [124.63103231041089, 2.9514037182212607],
            [118.22843584846711, -30.94717582077804]
          ]
        ]
      }
    },
    {
      "type": "Feature",
      "id": "market-mile",
      "properties": {
        "id": "market-mile",
        "name": "Market Mile",
        "internal_area": "financial",
        "color": "#299FC0",
        "stroke": "#299FC0",
        "fill": "#299FC0",
        "fillOpacity": 0.08,
        "geometry_status": "authoritative-authored-vertices",
        "vertex_count": 22,
        "source_origin_offset": "0xF4F0",
        "source_points_offset": "0xF520",
        "parent_origin_xyz": [-229.02471923828125, 161.25, 1304.8741455078125],
        "authored_points": [
          {
            "index": 0,
            "record_offset": "0xF520",
            "local": [67.02471923828125, 0.0, 80.1258544921875],
            "world": [-162.0, 161.25, 1385.0]
          },
          {
            "index": 1,
            "record_offset": "0xF550",
            "local": [151.02471923828125, 0.0, 167.1258544921875],
            "world": [-78.0, 161.25, 1472.0]
          },
          {
            "index": 2,
            "record_offset": "0xF580",
            "local": [232.02471923828125, 0.0, 209.1258544921875],
            "world": [3.0, 161.25, 1514.0]
          },
          {
            "index": 3,
            "record_offset": "0xF5B0",
            "local": [329.02471923828125, 0.0, 230.1258544921875],
            "world": [100.0, 161.25, 1535.0]
          },
          {
            "index": 4,
            "record_offset": "0xF5E0",
            "local": [377.02471923828125, 0.0, 157.1258544921875],
            "world": [148.0, 161.25, 1462.0]
          },
          {
            "index": 5,
            "record_offset": "0xF610",
            "local": [399.3593444824219, 0.0, 170.1357421875],
            "world": [170.33462524414062, 161.25, 1475.0098876953125]
          },
          {
            "index": 6,
            "record_offset": "0xF640",
            "local": [511.05303955078125, 0.0, 233.10302734375],
            "world": [282.0283203125, 161.25, 1537.9771728515625]
          },
          {
            "index": 7,
            "record_offset": "0xF670",
            "local": [667.3202514648438, 0.0, 236.8641357421875],
            "world": [438.2955322265625, 161.25, 1541.73828125]
          },
          {
            "index": 8,
            "record_offset": "0xF6A0",
            "local": [677.5828857421875, 0.0, 360.0223388671875],
            "world": [448.55816650390625, 161.25, 1664.896484375]
          },
          {
            "index": 9,
            "record_offset": "0xF6D0",
            "local": [693.01171875, 0.0, 545.2049560546875],
            "world": [463.98699951171875, 161.25, 1850.0791015625]
          },
          {
            "index": 10,
            "record_offset": "0xF700",
            "local": [526.5164794921875, 0.0, 554.3974609375],
            "world": [297.49176025390625, 161.25, 1859.2716064453125]
          },
          {
            "index": 11,
            "record_offset": "0xF730",
            "local": [258.04229736328125, 0.0, 489.777099609375],
            "world": [29.017578125, 161.25, 1794.6512451171875]
          },
          {
            "index": 12,
            "record_offset": "0xF760",
            "local": [16.902801513671875, 0.0, 351.26953125],
            "world": [-212.12191772460938, 161.25, 1656.1436767578125]
          },
          {
            "index": 13,
            "record_offset": "0xF790",
            "local": [-60.0272216796875, 0.0, 282.94873046875],
            "world": [-289.05194091796875, 161.25, 1587.8228759765625]
          },
          {
            "index": 14,
            "record_offset": "0xF7C0",
            "local": [-98.5299072265625, 0.0, 239.534912109375],
            "world": [-327.55462646484375, 161.25, 1544.4090576171875]
          },
          {
            "index": 15,
            "record_offset": "0xF7F0",
            "local": [-114.39483642578125, 0.0, 199.9722900390625],
            "world": [-343.4195556640625, 161.25, 1504.846435546875]
          },
          {
            "index": 16,
            "record_offset": "0xF820",
            "local": [-113.89028930664062, 0.0, 149.0496826171875],
            "world": [-342.9150085449219, 161.25, 1453.923828125]
          },
          {
            "index": 17,
            "record_offset": "0xF850",
            "local": [-73.9515380859375, 0.0, 67.5093994140625],
            "world": [-302.97625732421875, 161.25, 1372.383544921875]
          },
          {
            "index": 18,
            "record_offset": "0xF880",
            "local": [-18.255905151367188, 0.0, 10.1859130859375],
            "world": [-247.28062438964844, 161.25, 1315.06005859375]
          },
          {
            "index": 19,
            "record_offset": "0xF8B0",
            "local": [-26.716506958007812, 0.0, -3.5877685546875],
            "world": [-255.74122619628906, 161.25, 1301.286376953125]
          },
          {
            "index": 20,
            "record_offset": "0xF8E0",
            "local": [-25.624481201171875, 0.0, -26.0489501953125],
            "world": [-254.64920043945312, 161.25, 1278.8251953125]
          },
          {
            "index": 21,
            "record_offset": "0xF910",
            "local": [-21.1456298828125, 0.0, -30.4832763671875],
            "world": [-250.17034912109375, 161.25, 1274.390869140625]
          }
        ]
      },
      "geometry": {
        "type": "Polygon",
        "coordinates": [
          [
            [63.939185600735314, -57.21047928609135],
            [74.2471595960863, -71.08900040490403],
            [84.18699166303192, -77.78897611743429],
            [96.09024734813963, -81.13896397369942],
            [101.98051820262592, -69.49376809239682],
            [104.72128887182248, -71.56914741576206],
            [118.42766630288573, -81.61389220697258],
            [137.60383721641145, -82.21387637177556],
            [138.863205874205, -101.86047088930813],
            [140.75653931971863, -131.40140035452333],
            [120.32524650282248, -132.8678184367176],
            [87.37971212415708, -122.55936959306601],
            [57.7885257852306, -100.46419473569847],
            [48.34813675500562, -89.56543983343671],
            [43.623319119667954, -82.63992724781737],
            [41.67647057652948, -76.32876993841005],
            [41.73838555966675, -68.20543105876064],
            [46.63942852383104, -55.19786160509929],
            [53.47406109459492, -46.05343383948029],
            [52.43582700640598, -43.856211637949066],
            [52.569833829069296, -40.27313136492721],
            [53.11945148286325, -39.56575332557007],
            [63.939185600735314, -57.21047928609135]
          ]
        ]
      }
    },
    {
      "type": "Feature",
      "id": "brickswich",
      "properties": {
        "id": "brickswich",
        "name": "Brickswich",
        "internal_area": "stadium",
        "color": "#E95055",
        "stroke": "#E95055",
        "fill": "#E95055",
        "fillOpacity": 0.08,
        "geometry_status": "authoritative-authored-vertices",
        "vertex_count": 12,
        "source_origin_offset": "0xF940",
        "source_points_offset": "0xF9A0",
        "parent_origin_xyz": [
          437.527587890625, 162.22691345214844, 1542.2001953125
        ],
        "authored_points": [
          {
            "index": 0,
            "record_offset": "0xF9A0",
            "local": [24.944488525390625, 0.0, 308.265380859375],
            "world": [462.4720764160156, 162.22691345214844, 1850.465576171875]
          },
          {
            "index": 1,
            "record_offset": "0xF9D0",
            "local": [41.3939208984375, 0.0, 307.494140625],
            "world": [478.9215087890625, 162.22691345214844, 1849.6943359375]
          },
          {
            "index": 2,
            "record_offset": "0xFA00",
            "local": [139.39996337890625, 0.0, 266.5771484375],
            "world": [576.9275512695312, 162.22691345214844, 1808.77734375]
          },
          {
            "index": 3,
            "record_offset": "0xFA30",
            "local": [256.05364990234375, 0.0, 233.34619140625],
            "world": [693.5812377929688, 162.22691345214844, 1775.54638671875]
          },
          {
            "index": 4,
            "record_offset": "0xFA60",
            "local": [341.517822265625, 0.0, 239.736572265625],
            "world": [779.04541015625, 162.22691345214844, 1781.936767578125]
          },
          {
            "index": 5,
            "record_offset": "0xFA90",
            "local": [430.60931396484375, 0.0, 200.837158203125],
            "world": [868.1369018554688, 162.22691345214844, 1743.037353515625]
          },
          {
            "index": 6,
            "record_offset": "0xFAC0",
            "local": [495.56707763671875, 0.0, 139.0037841796875],
            "world": [933.0946655273438, 162.22691345214844, 1681.2039794921875]
          },
          {
            "index": 7,
            "record_offset": "0xFAF0",
            "local": [509.5882568359375, 0.0, 77.3546142578125],
            "world": [947.1158447265625, 162.22691345214844, 1619.5548095703125]
          },
          {
            "index": 8,
            "record_offset": "0xFB20",
            "local": [504.656982421875, 0.0, 25.5185546875],
            "world": [942.1845703125, 162.22691345214844, 1567.71875]
          },
          {
            "index": 9,
            "record_offset": "0xFB50",
            "local": [403.582763671875, 0.0, 14.7144775390625],
            "world": [841.1103515625, 162.22691345214844, 1556.9146728515625]
          },
          {
            "index": 10,
            "record_offset": "0xFB80",
            "local": [169.01568603515625, 0.0, -4.8232421875],
            "world": [606.5432739257812, 162.22691345214844, 1537.376953125]
          },
          {
            "index": 11,
            "record_offset": "0xFBB0",
            "local": [127.409912109375, 0.0, -3.248291015625],
            "world": [564.9375, 162.22691345214844, 1538.951904296875]
          }
        ]
      },
      "geometry": {
        "type": "Polygon",
        "coordinates": [
          [
            [140.57063708310594, -131.4630520330072],
            [142.58921233476846, -131.34002129874912],
            [154.61592349281534, -124.81281049193865],
            [168.9309611969275, -119.5117008487598],
            [179.4186096047239, -120.53111505237005],
            [190.35138079094506, -114.32575482736034],
            [198.32260625196702, -104.46189520400723],
            [200.04320090160633, -94.627420414145],
            [199.4380646108433, -86.35836469618393],
            [187.0348453432788, -84.6348633987831],
            [158.25018657607905, -81.5181432167309],
            [153.14457662746707, -81.76938451673053],
            [140.57063708310594, -131.4630520330072]
          ]
        ]
      }
    }
  ]
}
